     2.100          NAVIGATION                              RINEX VERSION / TYPE
fic2rin                                 11/26/2012 00:08:48 PGM / RUN BY / DATE
                                                            END OF HEADER
 3 12 11 25 22  0  0.0  .133372843266D-03  .511590769747D-11  .000000000000D+00
     .350000000000D+02  .262187500000D+02  .540593946479D-08  .330676441704D+00
     .137835741043D-05  .158708784729D-01  .673159956932D-05  .515375312614D+04
     .792000000000D+05 -.247731804848D-06  .608914488304D+00  .670552253723D-07
     .932760855154D+00  .237625000000D+03  .125556508744D+01 -.869679082767D-08
     .403945397376D-09  .100000000000D+01  .171600000000D+04  .000000000000D+00
     .240000000000D+01  .000000000000D+00 -.465661287308D-08  .350000000000D+02
     .720060000000D+05  .400000000000D+01
 4 12 11 25 22  0  0.0  .569098629057D-04  .111413100967D-10  .000000000000D+00
     .570000000000D+02 -.300312500000D+02  .527236247220D-08 -.284353440915D+01
    -.181421637535D-05  .104133913992D-01  .736676156521D-05  .515369565582D+04
     .792000000000D+05  .141561031342D-06  .179280305742D+01 -.188127160072D-06
     .937263371753D+00  .224156250000D+03  .937571304305D+00 -.820391315448D-08
    -.398588031363D-09  .100000000000D+01  .171600000000D+04  .000000000000D+00
     .240000000000D+01  .000000000000D+00 -.651925802231D-08  .570000000000D+02
     .720060000000D+05  .400000000000D+01
 5 12 11 25 22  0  0.0 -.368935987353D-03 -.238742359215D-11  .000000000000D+00
     .530000000000D+02  .831562500000D+02  .461412076808D-08  .225164771821D+01
     .436045229435D-05  .309473474044D-02  .115111470222D-04  .515380188942D+04
     .792000000000D+05 -.838190317154D-07  .284029626777D+01  .372529029846D-07
     .950159429108D+00  .152343750000D+03  .278969409087D+00 -.794318800852D-08
    -.860750139413D-10  .100000000000D+01  .171600000000D+04  .000000000000D+00
     .240000000000D+01  .000000000000D+00 -.102445483208D-07  .530000000000D+02
     .720060000000D+05  .400000000000D+01
 6 12 11 25 22  0  0.0  .445098150522D-03 -.122781784739D-10  .000000000000D+00
     .600000000000D+02  .260937500000D+02  .520628829138D-08  .222464389186D+01
     .130571424961D-05  .743396510370D-02  .613741576672D-05  .515368270302D+04
     .792000000000D+05  .745058059692D-07  .686967575414D+00  .147148966789D-06
     .939443706321D+00  .247750000000D+03 -.412137207763D+00 -.833106130786D-08
     .382873091058D-09  .100000000000D+01  .171600000000D+04  .000000000000D+00
     .240000000000D+01  .000000000000D+00 -.512227416039D-08  .600000000000D+02
     .720060000000D+05  .400000000000D+01
 7 12 11 25 22  0  0.0  .149800907820D-03  .443378667114D-11  .000000000000D+00
     .770000000000D+02 -.982187500000D+02  .417624538595D-08 -.122402853523D+01
    -.518374145031D-05  .605920492671D-02  .472180545330D-05  .515371639442D+04
     .792000000000D+05  .409781932831D-07 -.132859968967D+01 -.108033418655D-06
     .975604176847D+00  .296312500000D+03 -.292941822756D+01 -.804212070089D-08
    -.334299639208D-09  .100000000000D+01  .171600000000D+04  .000000000000D+00
     .240000000000D+01  .000000000000D+00 -.111758708954D-07  .770000000000D+02
     .720060000000D+05  .400000000000D+01
 8 12 11 25 22  0  0.0  .306218862534D-05  .227373675443D-12  .000000000000D+00
     .900000000000D+02 -.109593750000D+03  .359086385961D-08 -.183784397319D+01
    -.582821667194D-05  .127504053526D-01  .608898699284D-05  .515363317871D+04
     .792000000000D+05  .372529029846D-07 -.124129253828D+01 -.132247805595D-06
     .998089932852D+00  .278968750000D+03 -.289558893601D+01 -.772210737105D-08
    -.226438003480D-09  .100000000000D+01  .171600000000D+04  .000000000000D+00
     .240000000000D+01  .000000000000D+00 -.419095158577D-08  .900000000000D+02
     .720060000000D+05  .400000000000D+01
 9 12 11 25 22  0  0.0  .202255789191D-03  .261479726760D-11  .000000000000D+00
     .780000000000D+02 -.991250000000D+02  .407481258944D-08 -.169400737775D+01
    -.491179525852D-05  .170412915759D-01  .432692468166D-05  .515284782410D+04
     .792000000000D+05  .119209289551D-06 -.135304701255D+01  .445172190666D-06
     .984276124080D+00  .306593750000D+03  .163272814445D+01 -.798747556756D-08
    -.435018120251D-09  .100000000000D+01  .171600000000D+04  .000000000000D+00
     .340000000000D+01  .000000000000D+00 -.558793544769D-08  .780000000000D+02
     .720060000000D+05  .400000000000D+01
10 12 11 25 22  0  0.0 -.598193146288D-04 -.147792889038D-11  .000000000000D+00
     .660000000000D+02  .882812500000D+02  .461483508355D-08  .257022169904D+01
     .445917248726D-05  .120229111053D-01  .113435089588D-04  .515374890709D+04
     .792000000000D+05 -.521540641785D-07  .286078693560D+01 -.204890966415D-06
     .945023723528D+00  .151156250000D+03  .776082166480D+00 -.780889670046D-08
    -.542879755978D-10  .100000000000D+01  .171600000000D+04  .000000000000D+00
     .340000000000D+01  .000000000000D+00 -.279396772385D-08  .660000000000D+02
     .720060000000D+05  .400000000000D+01
11 12 11 25 22  0  0.0 -.326920766383D-03 -.386535248253D-11  .000000000000D+00
     .530000000000D+02 -.243750000000D+02  .665492006128D-08 -.103697243603D+01
    -.974163413048D-06  .137683895882D-01  .498071312904D-05  .515367310143D+04
     .792000000000D+05  .465661287308D-07  .151027251952D+01  .324100255966D-06
     .887943027077D+00  .243937500000D+03  .112472867255D+01 -.916609609041D-08
    -.218937691062D-09  .100000000000D+01  .171600000000D+04  .000000000000D+00
     .240000000000D+01  .000000000000D+00 -.116415321827D-07  .530000000000D+02
     .720060000000D+05  .400000000000D+01
12 12 11 25 22  0  0.0  .103563535959D-03  .204636307899D-11  .000000000000D+00
     .520000000000D+02 -.518125000000D+02  .365943814457D-08 -.152447317796D+01
    -.259093940258D-05  .404357386287D-02  .113733112812D-04  .515367450523D+04
     .792000000000D+05 -.316649675369D-07 -.271202839910D+00 -.689178705215D-07
     .982381073166D+00  .172718750000D+03  .142859986440D+00 -.747709716540D-08
     .300726812193D-09  .100000000000D+01  .171600000000D+04  .000000000000D+00
     .240000000000D+01  .000000000000D+00 -.121071934700D-07  .520000000000D+02
     .720060000000D+05  .400000000000D+01
13 12 11 25 22  0  0.0  .164650380611D-03 -.272848410532D-11  .000000000000D+00
     .390000000000D+02  .597187500000D+02  .423731935850D-08  .115511681358D+01
     .287964940071D-05  .480000174139D-02  .249035656452D-05  .515358881378D+04
     .792000000000D+05  .335276126862D-07 -.229776929888D+01 -.141561031342D-06
     .983696994311D+00  .340843750000D+03  .207565369350D+01 -.816676875013D-08
     .914323799542D-10  .100000000000D+01  .171600000000D+04  .000000000000D+00
     .240000000000D+01  .000000000000D+00 -.111758708954D-07  .390000000000D+02
     .720060000000D+05  .400000000000D+01
14 12 11 25 22  0  0.0  .217331573367D-03  .568434188608D-12  .000000000000D+00
     .820000000000D+02  .696562500000D+02  .442125559161D-08  .135416627947D+01
     .353157520294D-05  .681704399176D-02  .291876494884D-05  .515367355347D+04
     .792000000000D+05 -.165775418282D-06 -.232574751352D+01  .260770320892D-07
     .976471008474D+00  .333750000000D+03 -.202139181051D+01 -.828320217148D-08
     .112861844006D-09  .100000000000D+01  .171600000000D+04  .000000000000D+00
     .240000000000D+01  .000000000000D+00 -.884756445885D-08  .820000000000D+02
     .720060000000D+05  .400000000000D+01
15 12 11 25 22  0  0.0 -.100566074252D-03 -.102318153949D-11  .000000000000D+00
     .100000000000D+03  .903437500000D+02  .519485924388D-08  .940697599739D+00
     .481493771076D-05  .498493295163D-02  .243447721004D-05  .515367384148D+04
     .792000000000D+05  .186264514923D-07 -.241959958485D+01  .111758708954D-07
     .943262210703D+00  .318000000000D+03  .632280274383D-01 -.866178936972D-08
     .925038531568D-10  .100000000000D+01  .171600000000D+04  .000000000000D+00
     .340000000000D+01  .000000000000D+00 -.102445483208D-07  .100000000000D+03
     .720060000000D+05  .400000000000D+01
16 12 11 25 22  0  0.0 -.250049401075D-03 -.454747350886D-12  .000000000000D+00
     .650000000000D+02 -.434375000000D+02  .368479634370D-08  .250159930309D+01
    -.223331153393D-05  .659817608539D-02  .110697001219D-04  .515379462624D+04
     .792000000000D+05 -.800937414169D-07 -.252935722714D+00  .204890966415D-07
     .983145322052D+00  .179718750000D+03  .243271792675D-01 -.750102673359D-08
     .230009580822D-09  .100000000000D+01  .171600000000D+04  .000000000000D+00
     .240000000000D+01  .000000000000D+00 -.977888703346D-08  .650000000000D+02
     .720060000000D+05  .400000000000D+01
17 12 11 25 22  0  0.0  .752508640289D-04 -.352429196937D-11  .000000000000D+00
     .900000000000D+02  .176250000000D+02  .473448292450D-08  .158640253498D+01
     .927597284317D-06  .777992315125D-02  .608898699284D-05  .515375756264D+04
     .792000000000D+05 -.191852450371D-06  .785307281075D+00  .167638063431D-07
     .963939283552D+00  .261562500000D+03 -.228554954270D+01 -.817176895841D-08
     .392516349881D-09  .100000000000D+01  .171600000000D+04  .000000000000D+00
     .340000000000D+01  .000000000000D+00 -.107102096081D-07  .900000000000D+02
     .720060000000D+05  .400000000000D+01
18 12 11 25 22  0  0.0  .226378906518D-03  .181898940355D-11  .000000000000D+00
     .700000000000D+01  .704375000000D+02  .494056293713D-08  .305450983045D+01
     .357441604137D-05  .136123625562D-01  .107437372208D-04  .515375420189D+04
     .792000000000D+05  .577419996262D-07  .284677967493D+01 -.216066837311D-06
     .928802573338D+00  .152250000000D+03 -.213644606767D+01 -.791604402072D-08
    -.110718897601D-09  .100000000000D+01  .171600000000D+04  .000000000000D+00
     .240000000000D+01  .000000000000D+00 -.107102096081D-07  .700000000000D+01
     .720060000000D+05  .400000000000D+01
